[{"OBJECT_NAME":"UFO 10 (USA 146)","OBJECT_ID":"1999-063A","EPOCH":"2026-05-18T01:47:38.461344","MEAN_MOTION":1.00268506,"ECCENTRICITY":0.00024771,"INCLINATION":9.842,"RA_OF_ASC_NODE":27.3666,"ARG_OF_PERICENTER":337.2056,"MEAN_ANOMALY":235.2412,"EPHEMERIS_TYPE":0,"CLASSIFICATION_TYPE":"U","NORAD_CAT_ID":25967,"ELEMENT_SET_NO":999,"REV_AT_EPOCH":9704,"BSTAR":0,"MEAN_MOTION_DOT":-1.89e-06,"MEAN_MOTION_DDOT":0},{"OBJECT_NAME":"ASIASTAR","OBJECT_ID":"2000-016A","EPOCH":"2026-05-22T06:05:17.238336","MEAN_MOTION":1.0026831,"ECCENTRICITY":0.00049456,"INCLINATION":9.0723,"RA_OF_ASC_NODE":58.4313,"ARG_OF_PERICENTER":4.9595,"MEAN_ANOMALY":12.7972,"EPHEMERIS_TYPE":0,"CLASSIFICATION_TYPE":"U","NORAD_CAT_ID":26107,"ELEMENT_SET_NO":999,"REV_AT_EPOCH":9566,"BSTAR":0,"MEAN_MOTION_DOT":-3.41e-06,"MEAN_MOTION_DDOT":0},{"OBJECT_NAME":"TDRS 8","OBJECT_ID":"2000-034A","EPOCH":"2026-05-21T16:18:16.469856","MEAN_MOTION":1.00272214,"ECCENTRICITY":0.00055351,"INCLINATION":12.6432,"RA_OF_ASC_NODE":31.5472,"ARG_OF_PERICENTER":1.3529,"MEAN_ANOMALY":175.8514,"EPHEMERIS_TYPE":0,"CLASSIFICATION_TYPE":"U","NORAD_CAT_ID":26388,"ELEMENT_SET_NO":999,"REV_AT_EPOCH":9491,"BSTAR":0,"MEAN_MOTION_DOT":-2.05e-06,"MEAN_MOTION_DDOT":0},{"OBJECT_NAME":"NSS-11","OBJECT_ID":"2000-059A","EPOCH":"2026-05-22T06:15:13.207392","MEAN_MOTION":1.00270786,"ECCENTRICITY":0.00029475,"INCLINATION":2.0619,"RA_OF_ASC_NODE":81.6755,"ARG_OF_PERICENTER":326.1474,"MEAN_ANOMALY":101.8716,"EPHEMERIS_TYPE":0,"CLASSIFICATION_TYPE":"U","NORAD_CAT_ID":26554,"ELEMENT_SET_NO":999,"REV_AT_EPOCH":4103,"BSTAR":0,"MEAN_MOTION_DOT":1.7e-07,"MEAN_MOTION_DDOT":0},{"OBJECT_NAME":"USA 153","OBJECT_ID":"2000-065A","EPOCH":"2026-05-21T14:33:38.671776","MEAN_MOTION":1.00275843,"ECCENTRICITY":0.00030778,"INCLINATION":11.5809,"RA_OF_ASC_NODE":35.6429,"ARG_OF_PERICENTER":32.2598,"MEAN_ANOMALY":164.1306,"EPHEMERIS_TYPE":0,"CLASSIFICATION_TYPE":"U","NORAD_CAT_ID":26575,"ELEMENT_SET_NO":999,"REV_AT_EPOCH":3266,"BSTAR":0,"MEAN_MOTION_DOT":-3.34e-06,"MEAN_MOTION_DDOT":0},{"OBJECT_NAME":"AMC-6","OBJECT_ID":"2000-067A","EPOCH":"2026-05-22T07:33:42.340032","MEAN_MOTION":1.0026951,"ECCENTRICITY":0.00033826,"INCLINATION":0.1062,"RA_OF_ASC_NODE":79.3194,"ARG_OF_PERICENTER":342.2314,"MEAN_ANOMALY":156.7874,"EPHEMERIS_TYPE":0,"CLASSIFICATION_TYPE":"U","NORAD_CAT_ID":26580,"ELEMENT_SET_NO":999,"REV_AT_EPOCH":9363,"BSTAR":0,"MEAN_MOTION_DOT":8e-07,"MEAN_MOTION_DDOT":0},{"OBJECT_NAME":"USA 157 (MILSTAR-2 2)","OBJECT_ID":"2001-009A","EPOCH":"2026-05-22T05:32:26.020608","MEAN_MOTION":1.00276381,"ECCENTRICITY":0.00381837,"INCLINATION":11.5157,"RA_OF_ASC_NODE":19.9307,"ARG_OF_PERICENTER":179.1928,"MEAN_ANOMALY":333.8231,"EPHEMERIS_TYPE":0,"CLASSIFICATION_TYPE":"U","NORAD_CAT_ID":26715,"ELEMENT_SET_NO":999,"REV_AT_EPOCH":3268,"BSTAR":0,"MEAN_MOTION_DOT":9.9e-07,"MEAN_MOTION_DDOT":0},{"OBJECT_NAME":"INTELSAT 902 (IS-902)","OBJECT_ID":"2001-039A","EPOCH":"2026-05-22T03:38:22.848576","MEAN_MOTION":1.00270984,"ECCENTRICITY":0.00045615,"INCLINATION":6.0529,"RA_OF_ASC_NODE":72.0947,"ARG_OF_PERICENTER":345.0482,"MEAN_ANOMALY":187.1446,"EPHEMERIS_TYPE":0,"CLASSIFICATION_TYPE":"U","NORAD_CAT_ID":26900,"ELEMENT_SET_NO":999,"REV_AT_EPOCH":9043,"BSTAR":0,"MEAN_MOTION_DOT":-2.91e-06,"MEAN_MOTION_DDOT":0},{"OBJECT_NAME":"USA 164 (MILSTAR-2 3)","OBJECT_ID":"2002-001A","EPOCH":"2026-05-21T21:07:16.066848","MEAN_MOTION":1.00266836,"ECCENTRICITY":0.00998928,"INCLINATION":11.1505,"RA_OF_ASC_NODE":22.0711,"ARG_OF_PERICENTER":7.2929,"MEAN_ANOMALY":185.9835,"EPHEMERIS_TYPE":0,"CLASSIFICATION_TYPE":"U","NORAD_CAT_ID":27168,"ELEMENT_SET_NO":999,"REV_AT_EPOCH":3269,"BSTAR":0,"MEAN_MOTION_DOT":8.7e-07,"MEAN_MOTION_DDOT":0},{"OBJECT_NAME":"INTELSAT 904 (IS-904)","OBJECT_ID":"2002-007A","EPOCH":"2026-05-22T03:43:37.346304","MEAN_MOTION":1.0027053,"ECCENTRICITY":0.00072036,"INCLINATION":6.8578,"RA_OF_ASC_NODE":69.4918,"ARG_OF_PERICENTER":349.9392,"MEAN_ANOMALY":204.7797,"EPHEMERIS_TYPE":0,"CLASSIFICATION_TYPE":"U","NORAD_CAT_ID":27380,"ELEMENT_SET_NO":999,"REV_AT_EPOCH":5150,"BSTAR":0,"MEAN_MOTION_DOT":-2.33e-06,"MEAN_MOTION_DDOT":0},{"OBJECT_NAME":"DIRECTV 5 (TEMPO 1)","OBJECT_ID":"2002-023A","EPOCH":"2026-05-21T22:13:14.952000","MEAN_MOTION":1.00271401,"ECCENTRICITY":0.00031804,"INCLINATION":4.8133,"RA_OF_ASC_NODE":75.6282,"ARG_OF_PERICENTER":339.8656,"MEAN_ANOMALY":47.2738,"EPHEMERIS_TYPE":0,"CLASSIFICATION_TYPE":"U","NORAD_CAT_ID":27426,"ELEMENT_SET_NO":999,"REV_AT_EPOCH":8786,"BSTAR":0,"MEAN_MOTION_DOT":-6.4e-07,"MEAN_MOTION_DDOT":0},{"OBJECT_NAME":"INTELSAT 905 (IS-905)","OBJECT_ID":"2002-027A","EPOCH":"2026-05-22T07:36:50.533920","MEAN_MOTION":1.00272219,"ECCENTRICITY":0.0003854,"INCLINATION":6.6914,"RA_OF_ASC_NODE":70.1063,"ARG_OF_PERICENTER":0.2564,"MEAN_ANOMALY":146.5763,"EPHEMERIS_TYPE":0,"CLASSIFICATION_TYPE":"U","NORAD_CAT_ID":27438,"ELEMENT_SET_NO":999,"REV_AT_EPOCH":5110,"BSTAR":0,"MEAN_MOTION_DOT":8.6e-07,"MEAN_MOTION_DDOT":0},{"OBJECT_NAME":"GALAXY 3C (G-3C)","OBJECT_ID":"2002-030A","EPOCH":"2026-05-22T05:04:48.365760","MEAN_MOTION":1.00271084,"ECCENTRICITY":0.0001607,"INCLINATION":3.6654,"RA_OF_ASC_NODE":78.3183,"ARG_OF_PERICENTER":29.153,"MEAN_ANOMALY":113.718,"EPHEMERIS_TYPE":0,"CLASSIFICATION_TYPE":"U","NORAD_CAT_ID":27445,"ELEMENT_SET_NO":999,"REV_AT_EPOCH":4623,"BSTAR":0,"MEAN_MOTION_DOT":-1.6e-06,"MEAN_MOTION_DDOT":0},{"OBJECT_NAME":"INTELSAT 906 (IS-906)","OBJECT_ID":"2002-041A","EPOCH":"2026-05-21T21:20:14.822016","MEAN_MOTION":1.00270882,"ECCENTRICITY":0.00047302,"INCLINATION":5.7373,"RA_OF_ASC_NODE":73.2396,"ARG_OF_PERICENTER":343.8867,"MEAN_ANOMALY":206.6134,"EPHEMERIS_TYPE":0,"CLASSIFICATION_TYPE":"U","NORAD_CAT_ID":27513,"ELEMENT_SET_NO":999,"REV_AT_EPOCH":8676,"BSTAR":0,"MEAN_MOTION_DOT":6e-08,"MEAN_MOTION_DDOT":0},{"OBJECT_NAME":"NIMIQ 2","OBJECT_ID":"2002-062A","EPOCH":"2026-05-21T20:30:49.561056","MEAN_MOTION":1.00270757,"ECCENTRICITY":0.00058478,"INCLINATION":9.3882,"RA_OF_ASC_NODE":57.1779,"ARG_OF_PERICENTER":358.0742,"MEAN_ANOMALY":22.7847,"EPHEMERIS_TYPE":0,"CLASSIFICATION_TYPE":"U","NORAD_CAT_ID":27632,"ELEMENT_SET_NO":999,"REV_AT_EPOCH":4392,"BSTAR":0,"MEAN_MOTION_DOT":-7.8e-07,"MEAN_MOTION_DDOT":0},{"OBJECT_NAME":"USA 167","OBJECT_ID":"2003-008A","EPOCH":"2026-05-20T09:55:31.169280","MEAN_MOTION":1.00275034,"ECCENTRICITY":0.00044461,"INCLINATION":10.9087,"RA_OF_ASC_NODE":43.6575,"ARG_OF_PERICENTER":309.7461,"MEAN_ANOMALY":271.666,"EPHEMERIS_TYPE":0,"CLASSIFICATION_TYPE":"U","NORAD_CAT_ID":27691,"ELEMENT_SET_NO":999,"REV_AT_EPOCH":649,"BSTAR":0,"MEAN_MOTION_DOT":-4e-08,"MEAN_MOTION_DDOT":0},{"OBJECT_NAME":"USA 169 (MILSTAR-2 4)","OBJECT_ID":"2003-012A","EPOCH":"2026-05-21T23:27:59.136192","MEAN_MOTION":1.00273038,"ECCENTRICITY":0.01015445,"INCLINATION":12.3119,"RA_OF_ASC_NODE":30.058,"ARG_OF_PERICENTER":7.8347,"MEAN_ANOMALY":345.8531,"EPHEMERIS_TYPE":0,"CLASSIFICATION_TYPE":"U","NORAD_CAT_ID":27711,"ELEMENT_SET_NO":999,"REV_AT_EPOCH":3268,"BSTAR":0,"MEAN_MOTION_DOT":-2.65e-06,"MEAN_MOTION_DDOT":0}]