UFO 10 (USA 146)        
1 25967U 99063A   26138.07475071 -.00000189  00000+0  00000+0 0  9994
2 25967   9.8420  27.3666 0002477 337.2056 235.2412  1.00268506 97047
ASIASTAR                
1 26107U 00016A   26142.25367174 -.00000341  00000+0  00000+0 0  9990
2 26107   9.0723  58.4313 0004945   4.9595  12.7972  1.00268310 95662
TDRS 8                  
1 26388U 00034A   26141.67935729 -.00000205  00000+0  00000+0 0  9992
2 26388  12.6432  31.5472 0005535   1.3529 175.8514  1.00272214 94910
NSS-11                  
1 26554U 00059A   26142.26056953  .00000017  00000+0  00000+0 0  9993
2 26554   2.0619  81.6755 0002947 326.1474 101.8716  1.00270786 41036
USA 153                 
1 26575U 00065A   26141.60669759 -.00000334  00000+0  00000+0 0  9997
2 26575  11.5809  35.6429 0003077  32.2598 164.1306  1.00275843 32664
AMC-6                   
1 26580U 00067A   26142.31507338  .00000080  00000+0  00000+0 0  9995
2 26580   0.1062  79.3194 0003382 342.2314 156.7874  1.00269510 93633
USA 157 (MILSTAR-2 2)   
1 26715U 01009A   26142.23085672  .00000099  00000+0  00000+0 0  9995
2 26715  11.5157  19.9307 0038183 179.1928 333.8231  1.00276381 32682
INTELSAT 902 (IS-902)   
1 26900U 01039A   26142.15165334 -.00000291  00000+0  00000+0 0  9994
2 26900   6.0529  72.0947 0004561 345.0482 187.1446  1.00270984 90430
USA 164 (MILSTAR-2 3)   
1 27168U 02001A   26141.88004707  .00000087  00000+0  00000+0 0  9998
2 27168  11.1505  22.0711 0099892   7.2929 185.9835  1.00266836 32699
INTELSAT 904 (IS-904)   
1 27380U 02007A   26142.15529336 -.00000233  00000+0  00000+0 0  9995
2 27380   6.8578  69.4918 0007203 349.9392 204.7797  1.00270530 51509
DIRECTV 5 (TEMPO 1)     
1 27426U 02023A   26141.92586750 -.00000064  00000+0  00000+0 0  9993
2 27426   4.8133  75.6282 0003180 339.8656  47.2738  1.00271401 87860
INTELSAT 905 (IS-905)   
1 27438U 02027A   26142.31725155  .00000086  00000+0  00000+0 0  9991
2 27438   6.6914  70.1063 0003854   0.2564 146.5763  1.00272219 51109
GALAXY 3C (G-3C)        
1 27445U 02030A   26142.21167090 -.00000160  00000+0  00000+0 0  9994
2 27445   3.6654  78.3183 0001607  29.1530 113.7180  1.00271084 46231
INTELSAT 906 (IS-906)   
1 27513U 02041A   26141.88906044  .00000006  00000+0  00000+0 0  9992
2 27513   5.7373  73.2396 0004730 343.8867 206.6134  1.00270882 86765
NIMIQ 2                 
1 27632U 02062A   26141.85474029 -.00000078  00000+0  00000+0 0  9997
2 27632   9.3882  57.1779 0005847 358.0742  22.7847  1.00270757 43928
USA 167                 
1 27691U 03008A   26140.41355520 -.00000004  00000+0  00000+0 0  9997
2 27691  10.9087  43.6575 0004446 309.7461 271.6660  1.00275034  6499
USA 169 (MILSTAR-2 4)   
1 27711U 03012A   26141.97776778 -.00000265  00000+0  00000+0 0  9998
2 27711  12.3119  30.0580 0101544   7.8347 345.8531  1.00273038 32689
